STARLINK-32780          
1 62746U 25014M   26068.23528148  .00024532  00000+0  89767-3 0  9997
2 62746  43.0027 157.3244 0001702 263.2687  96.7971 15.27593172 63182
TEVEL2-7                
1 63238U 25052AE  26068.66113295  .00019244  00000+0  69668-3 0  9998
2 63238  97.4054 324.3041 0008105 124.6830 235.5175 15.28414096 54803
